satname,norad_id,inclination_deg,eccentricity,mean_motion_rev_per_day,perigee_km,apogee_km,l1,l2
STARLINK-1363,45568,53.0552,0.0001207,15.35384312,458.9538840885116,460.60455706415905,1 45568U 20025AP  25299.91670139  .01761030  00000+0  45496-1 0  9996,2 45568  53.0552 325.8391 0001207  60.8152 188.4044 15.35384312  5798
STARLINK-1366,45569,53.0538,9.87e-05,15.36852666,454.74862420888985,456.0975689719562,1 45569U 20025AQ  25299.91670139  .00179469  00000+0  48049-2 0  9993,2 45569  53.0538 325.2613 0000987 100.1725  19.9752 15.36852666  5799
STARLINK-1376,45570,53.056,0.0001457,15.06389722,546.2340308325265,548.2520865816341,1 45570U 20025AR  25299.40222058 -.00002027  00000+0 -11722-3 0  9998,2 45570  53.0560 329.4610 0001457  94.2635 265.8520 15.06389722305125
STARLINK-1320,45572,53.0586,0.0009355,15.41434187,435.49557878317046,448.25582254611345,1 45572U 20025AT  25299.34145513  .00094904  00000+0  22133-2 0  9993,2 45572  53.0586 274.3867 0009355 355.6395   4.4526 15.41434187305914
STARLINK-1321,45573,53.0553,0.0001313,15.06401922,546.2963697991445,548.1149647835755,1 45573U 20025AU  25299.78647242 -.00000051  00000+0  15501-4 0  9992,2 45573  53.0553 317.7335 0001313  92.0054 268.1086 15.06401922305025
STARLINK-1328,45576,53.0521,0.0010123,15.66084849,363.2892896133653,376.95181185057663,1 45576U 20025AX  25299.91670139  .00216134  00000+0  20155-2 0  9990,2 45576  53.0521 295.4545 0010123  20.4451 264.8347 15.66084849  5888
STARLINK-1331,45578,53.0553,0.000172,15.0639024,546.0503059970588,548.4326361911153,1 45578U 20025AZ  25299.76438380  .00001181  00000+0  98223-4 0  9992,2 45578  53.0553 317.8332 0001720  91.4445 268.6741 15.06390240305334
STARLINK-1333,45580,53.0554,0.0001512,15.06370308,546.2554346749739,548.349687598261,1 45580U 20025BB  25299.77084696 -.00004011  00000+0 -25072-3 0  9991,2 45580  53.0554 327.8023 0001512  83.9393 276.1768 15.06370308305182
STARLINK-1335,45581,53.0549,0.0001605,15.06402513,546.0923387585417,548.3153731733064,1 45581U 20025BC  25299.77542852  .00004060  00000+0  29129-3 0  9994,2 45581  53.0549 317.7842 0001605  86.0411 274.0761 15.06402513305322
STARLINK-1337,45582,53.0544,0.0001426,15.06420656,546.1607053198895,548.135796673474,1 45582U 20025BD  25299.33309623  .00007842  00000+0  54444-3 0  9993,2 45582  53.0544 319.7701 0001426  84.5163 275.5989 15.06420656305250
STARLINK-1347,45586,53.0563,0.0006152,15.30596173,469.81696877762806,478.247878036188,1 45586U 20025BH  25299.75406260  .00090229  00000+0  29835-2 0  9994,2 45586  53.0563 304.2164 0006152 338.1223  21.9513 15.30596173305502
STARLINK-1360,45588,53.0429,0.000594,15.74123896,343.13058746969364,351.1201991929702,1 45588U 20025BK  25299.82091532  .00107074  00000+0  72747-3 0  9994,2 45588  53.0429 224.0189 0005940 117.9176 242.2444 15.74123896306648
STARLINK-1364,45589,53.0558,0.0001609,15.0639665,546.1075349898374,548.3361154597942,1 45589U 20025BL  25299.33680753  .00000350  00000+0  42383-4 0  9993,2 45589  53.0558 319.7569 0001609  94.6630 265.4543 15.06396650305258
STARLINK-1365,45590,53.0559,0.0001305,15.06410942,546.2742688767712,548.0817760976415,1 45590U 20025BM  25299.41880116  .00002378  00000+0  17846-3 0  9996,2 45590  53.0559 349.3834 0001305  88.3033 271.8106 15.06410942304868
STARLINK-1443,45660,53.0536,0.0001057,15.064102,546.4482905454934,547.9123026219913,1 45660U 20035D   25299.73578399  .00002521  00000+0  18800-3 0  9998,2 45660  53.0536 307.9645 0001057  93.1662 266.9448 15.06410200298545
STARLINK-1446,45663,53.0265,0.0001034,15.33044474,466.02735772682627,467.44287728072504,1 45663U 20035G   25299.63130282  .00049635  00000+0  15346-2 0  9993,2 45663  53.0265 272.2722 0001034   5.4431 354.6580 15.33044474299035
STARLINK-1448,45665,53.0548,0.0001377,15.06395378,546.2721012917482,548.179346185867,1 45665U 20035J   25299.34141008  .00001748  00000+0  13622-3 0  9990,2 45665  53.0548 309.7303 0001377  94.9050 265.2096 15.06395378298470
STARLINK-1451,45668,53.0548,0.0001402,15.06401862,546.2349181145973,548.1767842500685,1 45668U 20035M   25299.74322226  .00003623  00000+0  26201-3 0  9991,2 45668  53.0548 308.2451 0001402  90.2109 269.9040 15.06401862298548
STARLINK-1452,45669,53.0421,0.001059,15.2572131,481.3484359498934,495.8922279789931,1 45669U 20035N   25299.25504411  .00017009  00000+0  66927-3 0  9998,2 45669  53.0421 292.1279 0010590 357.8357   2.2592 15.25721310298727
STARLINK-1453,45670,53.0534,0.0001298,15.06396338,546.3238697639554,548.1216931632234,1 45670U 20035P   25299.22253699  .00001014  00000+0  86993-4 0  9991,2 45670  53.0534 280.2679 0001298  92.4285 267.6853 15.06396338298772
STARLINK-1454,45671,53.0541,0.0001487,15.06410771,546.1487521495073,548.2083409930583,1 45671U 20035Q   25299.76528102  .00002707  00000+0  20047-3 0  9992,2 45671  53.0541 307.8308 0001487  87.0341 273.0818 15.06410771298533
STARLINK-1456,45673,53.0545,0.000148,15.06421567,546.1205171741758,548.1704007820344,1 45673U 20035S   25299.24924539  .00007859  00000+0  54557-3 0  9997,2 45673  53.0545 310.1474 0001480  87.2918 272.8241 15.06421567298470
STARLINK-1457,45674,53.0542,0.0001327,15.06467783,546.0848544084829,547.9227867822692,1 45674U 20035T   25299.72096566  .00008010  00000+0  55499-3 0  9997,2 45674  53.0542 308.0271 0001327 108.6430 251.4703 15.06467783298517
STARLINK-1458,45675,53.0542,0.0002351,15.06398558,545.5878269791147,548.844127949119,1 45675U 20035U   25299.24556255 -.00010449  00000+0 -68361-3 0  9994,2 45675  53.0542 310.1612 0002351  22.3858 337.7233 15.06398558298435
STARLINK-1460,45676,53.0548,0.0001437,15.06383636,546.2665319005755,548.2568914903168,1 45676U 20035V   25299.74686605 -.00001580  00000+0 -87258-4 0  9996,2 45676  53.0548 307.9116 0001437  94.8973 265.2180 15.06383636298506
STARLINK-1392,45677,53.0547,0.0001467,15.06392816,546.2176240876015,548.2495278145861,1 45677U 20035W   25299.29349539  .00001472  00000+0  11774-3 0  9996,2 45677  53.0547 309.9488 0001467  95.3558 264.7599 15.06392816298472
STARLINK-1394,45679,53.0534,0.0001337,15.06390501,546.3147481635224,548.166594152789,1 45679U 20035Y   25299.68881872  .00000226  00000+0  34066-4 0  9998,2 45679  53.0534 298.1702 0001337  74.8987 285.2150 15.06390501298674
STARLINK-1402,45685,53.0567,0.0001391,15.23936589,493.0245975956168,494.9364206866594,1 45685U 20035AE  25299.91670139  .00713283  00000+0  27151-1 0  9991,2 45685  53.0567 290.5366 0001391  96.2343  66.9540 15.23936589  5587
STARLINK-1404,45686,53.0541,0.0001441,15.06399021,546.2166152743303,548.2125015934707,1 45686U 20035AF  25299.71461520  .00002484  00000+0  18559-3 0  9990,2 45686  53.0541 298.0589 0001441  91.6153 268.5001 15.06399021298686
STARLINK-1413,45689,53.0557,0.0001654,15.06401946,546.0601420699686,548.3510453999761,1 45689U 20035AJ  25299.73303831 -.00002890  00000+0 -17515-3 0  9999,2 45689  53.0557 297.9708 0001654  94.9869 265.1309 15.06401946298597
STARLINK-1417,45693,53.0545,0.0001515,15.06400519,546.1607772129419,548.2591573440277,1 45693U 20035AN  25299.72936009  .00003401  00000+0  24713-3 0  9997,2 45693  53.0545 297.9928 0001515  90.2915 269.8247 15.06400519298676
STARLINK-1420,45695,53.0539,0.0001587,15.06403093,546.1030270432366,548.3011296667073,1 45695U 20035AQ  25299.66390187  .00002310  00000+0  17390-3 0  9994,2 45695  53.0539 278.2737 0001587  94.0646 266.0525 15.06403093298952
STARLINK-1422,45696,53.0551,0.0001403,15.06403322,546.2297515312202,548.1730014796667,1 45696U 20035AR  25299.74041750  .00001252  00000+0  10291-3 0  9990,2 45696  53.0551 297.9417 0001403  96.5213 263.5936 15.06403322298676
STARLINK-1351,45697,53.0561,0.0001554,15.06399836,546.1358613306893,548.2882598187161,1 45697U 20035AS  25299.65010610  .00001758  00000+0  13690-3 0  9999,2 45697  53.0561 278.3462 0001554  85.1935 274.9231 15.06399836298952
STARLINK-1398,45699,53.05,0.0004189,15.50068549,413.6794564344109,419.372024878533,1 45699U 20035AU  25299.91670139  .00123372  00000+0  21330-2 0  9994,2 45699  53.0500 238.2503 0004189  87.7344 153.4597 15.50068549  5705
STARLINK-1400,45700,53.0542,0.0001534,15.0642292,546.078974636911,548.2036500231343,1 45700U 20035AV  25299.35888455  .00003732  00000+0  26913-3 0  9997,2 45700  53.0542 279.6539 0001534  98.1368 261.9795 15.06422920298904
STARLINK-1403,45701,53.0546,0.0001535,15.06397227,546.157014488711,548.2830991051469,1 45701U 20035AW  25299.25571786  .00003936  00000+0  28303-3 0  9994,2 45701  53.0546 280.1178 0001535  88.0620 272.0545 15.06397227298889
STARLINK-1407,45703,53.0411,0.0011716,15.4064,436.22619963879333,452.2123448559232,1 45703U 20035AY  25299.91670139  .00087545  00000+0  20972-2 0  9992,2 45703  53.0411 236.8808 0011716  43.5578 147.2083 15.40640000  5873
STARLINK-1411,45706,53.0544,0.0002533,15.38886532,447.6713144413616,451.1301450552519,1 45706U 20035BB  25299.62953713  .00049984  00000+0  12816-2 0  9998,2 45706  53.0544 265.3434 0002533 104.2480 255.8804 15.38886532299128
STARLINK-1423,45710,53.0545,0.0001397,15.0639728,546.2524220009273,548.1873667172122,1 45710U 20035BF  25299.34785962  .00001765  00000+0  13739-3 0  9992,2 45710  53.0545 279.7057 0001397  90.7893 269.3256 15.06397280298906
STARLINK-1433,45711,53.0542,0.0001627,15.06386671,546.125648847813,548.3791705617305,1 45711U 20035BG  25299.66116700 -.00000789  00000+0 -34060-4 0  9994,2 45711  53.0542 278.2956 0001627  84.2601 275.8573 15.06386671298947
STARLINK-1434,45712,53.0505,0.0004806,15.15032243,517.5650068889618,524.1963426779639,1 45712U 20035BH  25299.65267894  .00043594  00000+0  23070-2 0  9991,2 45712  53.0505 274.7940 0004806  45.1566 314.9817 15.15032243299006
STARLINK-1465,45731,53.0547,0.0001755,15.06391595,546.0219149796712,548.452721365351,1 45731U 20038B   25299.76068660  .00000400  00000+0  45770-4 0  9999,2 45731  53.0547 117.8469 0001755  91.4769 268.6421 15.06391595296006
